GLOBALSTAR M069         
1 31573U 07020C   26177.85923056 -.00000055  00000+0  34804-3 0  9991
2 31573  52.0006 224.7512 0002115 169.4544  14.8143 12.23471544879984
GLOBALSTAR M072         
1 31574U 07020D   26177.95480654 -.00000090  00000+0 -76354-4 0  9992
2 31574  51.9937  74.2414 0001518 356.2897  89.9658 11.91658399876146
GLOBALSTAR M066         
1 32265U 07048C   26177.89492787 -.00000119  00000+0 -20373-3 0  9994
2 32265  51.9610  30.0450 0005622  64.3955 309.1585 12.30386972861424
GLOBALSTAR M079         
1 37188U 10054A   26177.87923083 -.00000109  00000+0 -30525-4 0  9990
2 37188  52.0044  79.1660 0000917  45.6231  30.7035 12.62266213723776
GLOBALSTAR M074         
1 37189U 10054B   26177.90618595 -.00000112  00000+0 -47034-4 0  9991
2 37189  52.0015  78.3472 0000712  68.6000  10.5372 12.62261814724389
GLOBALSTAR M076         
1 37190U 10054C   26177.93296890 -.00000117  00000+0 -72399-4 0  9993
2 37190  52.0030  78.4697 0000938  61.7647  19.0352 12.62261856724107
GLOBALSTAR M077         
1 37191U 10054D   26177.96109888 -.00000069  00000+0  16378-3 0  9996
2 37191  51.9925 154.4870 0002576 190.4841 202.3764 11.67547984722287
GLOBALSTAR M075         
1 37192U 10054E   26177.85688729 -.00000114  00000+0 -57916-4 0  9997
2 37192  51.9939 120.7500 0000399  36.8812 358.1410 12.62267388723160
GLOBALSTAR M073         
1 37193U 10054F   26177.85238263 -.00000088  00000+0  87997-4 0  9993
2 37193  52.0075  34.8721 0001064  66.7635 306.2110 12.62266663725156
GLOBALSTAR M083         
1 37739U 11033A   26177.81360377 -.00000076  00000+0  15570-3 0  9999
2 37739  51.9880 343.2052 0000958  82.6052  55.4612 12.62263625694160
GLOBALSTAR M088         
1 37740U 11033B   26177.95308830 -.00000081  00000+0  12751-3 0  9996
2 37740  52.0203 249.2339 0000487 141.3830  29.2977 12.62268988689726
GLOBALSTAR M091         
1 37741U 11033C   26177.80786671 -.00000077  00000+0  15054-3 0  9998
2 37741  51.9969 212.6261 0000062 181.8795 349.4250 12.62264106690495
GLOBALSTAR M085         
1 37742U 11033D   26177.91932965 -.00000097  00000+0  40062-4 0  9990
2 37742  52.0098 163.5857 0000334 355.1892  22.9315 12.62264180691029
GLOBALSTAR M081         
1 37743U 11033E   26177.94566253 -.00000091  00000+0  73436-4 0  9992
2 37743  51.9930 165.9308 0000232  35.4582 342.0917 12.62265254691174
GLOBALSTAR M089         
1 37744U 11033F   26177.82838769 -.00000110  00000+0 -35451-4 0  9992
2 37744  51.9919 120.4446 0000491  78.3798 306.9488 12.62267390692001
GLOBALSTAR M084         
1 38040U 11080A   26177.95165008 -.00000094  00000+0  56818-4 0  9997
2 38040  52.0027 347.5556 0001100 101.4335  64.2157 12.62267655669993
GLOBALSTAR M080         
1 38041U 11080B   26177.92265818 -.00000082  00000+0  12218-3 0  9997
2 38041  52.0084 349.3655 0000422  77.4118  86.5314 12.62269754670114
GLOBALSTAR M082         
1 38042U 11080C   26177.86149053 -.00000098  00000+0  29440-4 0  9996
2 38042  52.0089 305.0541 0000480 105.5183  70.1650 12.62263755670816
GLOBALSTAR M092         
1 38043U 11080D   26177.98725654 -.00000091  00000+0  70928-4 0  9997
2 38043  52.0098  35.0685 0000822  77.3843  69.2094 12.62267137669283
GLOBALSTAR M090         
1 38044U 11080E   26177.72331726 -.00000104  00000+0  20771-6 0  9991
2 38044  52.0135 299.4334 0000724 102.7186  43.9741 12.62269100670919
GLOBALSTAR M086         
1 38045U 11080F   26177.74519206 -.00000077  00000+0  15053-3 0  9998
2 38045  51.9911 299.2812 0001690  83.6353  64.1565 12.62287228670869
GLOBALSTAR M097         
1 39072U 13005A   26177.82340945 -.00000072  00000+0  17479-3 0  9998
2 39072  52.0016 214.0038 0000131  97.1104 262.9778 12.62271200618124
GLOBALSTAR M093         
1 39073U 13005B   26177.79656311 -.00000077  00000+0  14796-3 0  9996
2 39073  52.0075 207.4348 0000223  40.6543 319.4341 12.62266086618076
GLOBALSTAR M094         
1 39074U 13005C   26177.87561763 -.00000125  00000+0 -11676-3 0  9991
2 39074  51.9945 121.2998 0000652  28.2796 331.8106 12.62268470619698
GLOBALSTAR M096         
1 39075U 13005D   26177.96830626 -.00000099  00000+0  26988-4 0  9991
2 39075  52.0044 169.8273 0000272   0.2380 359.8486 12.62265647618628
GLOBALSTAR M078         
1 39076U 13005E   26177.94136910  .00000036  00000+0  78113-3 0  9991
2 39076  51.9865 253.9072 0000501 272.8083  87.2727 12.62259916617241
GLOBALSTAR M095         
1 39077U 13005F   26177.88890531 -.00000081  00000+0  12886-3 0  9997
2 39077  52.0073 251.6849 0000052  91.2536 268.8337 12.62263622617095
GLOBALSTAR M087         
1 52888U 22064A   26177.90209884 -.00000095  00000+0  49872-4 0  9996
2 52888  52.0011  32.8762 0000889  57.9586 302.1367 12.62269234192365
